CCSDS_OMM_VERS = 2.0
CREATION_DATE  = 
ORIGINATOR     = 

OBJECT_NAME    = CORAL
OBJECT_ID      = 1998-067YA
CENTER_NAME    = EARTH
REF_FRAME      = TEME
TIME_SYSTEM    = UTC
MEAN_ELEMENT_THEORY = SGP/SGP4

EPOCH          = 2026-03-24T00:38:41.714880
MEAN_MOTION    = 15.56726858
ECCENTRICITY   = .00122715
INCLINATION    = 51.6309
RA_OF_ASC_NODE = 359.8982
ARG_OF_PERICENTER = 226.7288
MEAN_ANOMALY   = 133.2681

EPHEMERIS_TYPE = 0
CLASSIFICATION_TYPE = U
NORAD_CAT_ID   = 67684
ELEMENT_SET_NO = 999
REV_AT_EPOCH   = 702
BSTAR          = .11500022E-2
MEAN_MOTION_DOT = .84434E-3
MEAN_MOTION_DDOT = 0

CCSDS_OMM_VERS = 2.0
CREATION_DATE  = 
ORIGINATOR     = 

OBJECT_NAME    = GXIBA-1
OBJECT_ID      = 1998-067YB
CENTER_NAME    = EARTH
REF_FRAME      = TEME
TIME_SYSTEM    = UTC
MEAN_ELEMENT_THEORY = SGP/SGP4

EPOCH          = 2026-03-23T22:41:45.328992
MEAN_MOTION    = 15.53503062
ECCENTRICITY   = .00118221
INCLINATION    = 51.6338
RA_OF_ASC_NODE = 0.8611
ARG_OF_PERICENTER = 234.4096
MEAN_ANOMALY   = 125.5793

EPHEMERIS_TYPE = 0
CLASSIFICATION_TYPE = U
NORAD_CAT_ID   = 67685
ELEMENT_SET_NO = 999
REV_AT_EPOCH   = 700
BSTAR          = .73089054E-3
MEAN_MOTION_DOT = .47226E-3
MEAN_MOTION_DDOT = 0

CCSDS_OMM_VERS = 2.0
CREATION_DATE  = 
ORIGINATOR     = 

OBJECT_NAME    = UITMSAT-2
OBJECT_ID      = 1998-067YC
CENTER_NAME    = EARTH
REF_FRAME      = TEME
TIME_SYSTEM    = UTC
MEAN_ELEMENT_THEORY = SGP/SGP4

EPOCH          = 2026-03-24T01:29:55.221216
MEAN_MOTION    = 15.54352229
ECCENTRICITY   = .00088124
INCLINATION    = 51.6326
RA_OF_ASC_NODE = 0.1380
ARG_OF_PERICENTER = 205.0636
MEAN_ANOMALY   = 154.9928

EPHEMERIS_TYPE = 0
CLASSIFICATION_TYPE = U
NORAD_CAT_ID   = 67686
ELEMENT_SET_NO = 999
REV_AT_EPOCH   = 702
BSTAR          = .83754632E-3
MEAN_MOTION_DOT = .55892E-3
MEAN_MOTION_DDOT = 0

CCSDS_OMM_VERS = 2.0
CREATION_DATE  = 
ORIGINATOR     = 

OBJECT_NAME    = HMU-SAT2
OBJECT_ID      = 1998-067YD
CENTER_NAME    = EARTH
REF_FRAME      = TEME
TIME_SYSTEM    = UTC
MEAN_ELEMENT_THEORY = SGP/SGP4

EPOCH          = 2026-03-24T00:20:21.743520
MEAN_MOTION    = 15.53258522
ECCENTRICITY   = .00083965
INCLINATION    = 51.6328
RA_OF_ASC_NODE = 0.5652
ARG_OF_PERICENTER = 207.9190
MEAN_ANOMALY   = 152.1351

EPHEMERIS_TYPE = 0
CLASSIFICATION_TYPE = U
NORAD_CAT_ID   = 67687
ELEMENT_SET_NO = 999
REV_AT_EPOCH   = 693
BSTAR          = .64805222E-3
MEAN_MOTION_DOT = .41357E-3
MEAN_MOTION_DDOT = 0

CCSDS_OMM_VERS = 2.0
CREATION_DATE  = 
ORIGINATOR     = 

OBJECT_NAME    = LEOPARD
OBJECT_ID      = 1998-067YE
CENTER_NAME    = EARTH
REF_FRAME      = TEME
TIME_SYSTEM    = UTC
MEAN_ELEMENT_THEORY = SGP/SGP4

EPOCH          = 2026-03-24T01:37:43.281984
MEAN_MOTION    = 15.53969684
ECCENTRICITY   = .00086465
INCLINATION    = 51.6323
RA_OF_ASC_NODE = 0.1737
ARG_OF_PERICENTER = 205.7190
MEAN_ANOMALY   = 154.3372

EPHEMERIS_TYPE = 0
CLASSIFICATION_TYPE = U
NORAD_CAT_ID   = 67688
ELEMENT_SET_NO = 999
REV_AT_EPOCH   = 694
BSTAR          = .76117619E-3
MEAN_MOTION_DOT = .50002E-3
MEAN_MOTION_DDOT = 0

CCSDS_OMM_VERS = 2.0
CREATION_DATE  = 
ORIGINATOR     = 

OBJECT_NAME    = CREW DRAGON 12
OBJECT_ID      = 2026-031A
CENTER_NAME    = EARTH
REF_FRAME      = TEME
TIME_SYSTEM    = UTC
MEAN_ELEMENT_THEORY = SGP/SGP4

EPOCH          = 2026-03-24T03:55:35.551488
MEAN_MOTION    = 15.48514008
ECCENTRICITY   = .00062677
INCLINATION    = 51.6345
RA_OF_ASC_NODE = 0.8084
ARG_OF_PERICENTER = 226.2093
MEAN_ANOMALY   = 133.8378

EPHEMERIS_TYPE = 0
CLASSIFICATION_TYPE = U
NORAD_CAT_ID   = 67796
ELEMENT_SET_NO = 999
REV_AT_EPOCH   = 55850
BSTAR          = .2692749E-3
MEAN_MOTION_DOT = .1417E-3
MEAN_MOTION_DDOT = 0

CCSDS_OMM_VERS = 2.0
CREATION_DATE  = 
ORIGINATOR     = 

OBJECT_NAME    = PROGRESS-MS 33
OBJECT_ID      = 2026-058A
CENTER_NAME    = EARTH
REF_FRAME      = TEME
TIME_SYSTEM    = UTC
MEAN_ELEMENT_THEORY = SGP/SGP4

EPOCH          = 2026-03-23T01:13:34.369536
MEAN_MOTION    = 16.01170532
ECCENTRICITY   = .00116217
INCLINATION    = 51.6358
RA_OF_ASC_NODE = 6.8873
ARG_OF_PERICENTER = 152.2903
MEAN_ANOMALY   = 207.8729

EPHEMERIS_TYPE = 0
CLASSIFICATION_TYPE = U
NORAD_CAT_ID   = 68319
ELEMENT_SET_NO = 999
REV_AT_EPOCH   = 6
BSTAR          = .35870065E-3
MEAN_MOTION_DOT = .200487E-2
MEAN_MOTION_DDOT = .28255529E-4

CCSDS_OMM_VERS = 2.0
CREATION_DATE  = 
ORIGINATOR     = 

OBJECT_NAME    = SL-4 R/B
OBJECT_ID      = 2026-058B
CENTER_NAME    = EARTH
REF_FRAME      = TEME
TIME_SYSTEM    = UTC
MEAN_ELEMENT_THEORY = SGP/SGP4

EPOCH          = 2026-03-24T03:27:49.129632
MEAN_MOTION    = 16.45417185
ECCENTRICITY   = .0007315
INCLINATION    = 51.6482
RA_OF_ASC_NODE = 0.7405
ARG_OF_PERICENTER = 84.8434
MEAN_ANOMALY   = 275.3430

EPHEMERIS_TYPE = 0
CLASSIFICATION_TYPE = U
NORAD_CAT_ID   = 68320
ELEMENT_SET_NO = 999
REV_AT_EPOCH   = 27
BSTAR          = .27517424E-3
MEAN_MOTION_DOT = .10751138E+0
MEAN_MOTION_DDOT = .12560806E-4

